ORBCOMM FM24            
1 25478U 98053D   24221.72416870  .00002932  00000+0  10465-2 0  9990
2 25478  45.0088 308.6152 0001441 213.5306 146.5450 14.36068485352772
ORBCOMM FM25            
1 25479U 98053E   24221.55250969  .00003011  00000+0  10737-2 0  9998
2 25479  45.0078 307.6769 0002999 156.7216 203.3768 14.36053956352762
ORBCOMM FM26            
1 25480U 98053F   24221.66531893  .00002170  00000+0  79710-3 0  9992
2 25480  45.0071 301.6627 0005576 164.3297 195.7723 14.35432120352816
ORBCOMM FM27            
1 25481U 98053G   24221.75009217  .00003180  00000+0  11313-2 0  9999
2 25481  45.0061 307.0036 0002549 248.5091 111.5484 14.36043875352764
ORBCOMM FM28            
1 25482U 98053H   24221.57100298  .00002173  00000+0  78214-3 0  9996
2 25482  45.0040 246.0251 0003850 210.1957 149.8669 14.36438366353544
ORBCOMM FM30            
1 25980U 99065A   24221.82760159  .00003024  00000+0  10883-2 0  9992
2 25980  45.0310 126.5133 0005651 252.5045 107.5185 14.35568620290064
ORBCOMM FM31            
1 25981U 99065B   24221.16716254  .00002601  00000+0  94361-3 0  9991
2 25981  45.0223 123.2624 0003383 282.6001  77.4468 14.35553542288998
ORBCOMM FM32            
1 25982U 99065C   24221.21103058  .00002565  00000+0  94943-3 0  9995
2 25982  45.0151 137.4942 0005759 279.2140  80.8056 14.34562935289621
